CALSPHERE 1             
1 00900U 64063C   21355.87691796  .00000391  00000+0  40763-3 0  9992
2 00900  90.1684  37.7183 0027551 191.8086 230.6182 13.73643509846282
CALSPHERE 2             
1 00902U 64063E   21355.64300881  .00000038  00000+0  44466-4 0  9994
2 00902  90.1813  40.6746 0016724 307.6893 176.0917 13.52704021634737
LCS 1                   
1 01361U 65034C   21355.69780329 -.00000006  00000+0 -19440-2 0  9996
2 01361  32.1406 107.3345 0013351 327.8851  32.0832  9.89300616 47628
TEMPSAT 1               
1 01512U 65065E   21355.61773464  .00000033  00000+0  47760-4 0  9998
2 01512  89.9033 220.2198 0070227 168.5203 219.5394 13.33443100741670
CALSPHERE 4A            
1 01520U 65065H   21355.92246572  .00000066  00000+0  10887-3 0  9991
2 01520  90.0039 130.1834 0070378  45.1044  78.1788 13.35862378743957
OPS 5712 (P/L 160)      
1 02826U 67053A   21355.92337807  .00001526  00000+0  41061-3 0  9992
2 02826  69.9281 345.3208 0010789 252.3763 107.6192 14.49854154826998
OPS 5712 (P/L 153)      
1 02874U 67053H   21356.13751328 -.00000001  00000+0  37590-4 0  9998
2 02874  69.9745  24.9363 0007144 187.6609 172.4388 13.96383265778554
SURCAL 150B             
1 02909U 67053J   21355.94498881  .00002865  00000+0  57307-3 0  9993
2 02909  69.9490 343.1970 0009050 271.4164  88.5940 14.62842575837641
RIGIDSPHERE 2 (LCS 4)   
1 05398U 71067E   21356.19004557  .00000381  00000+0  12731-3 0  9992
2 05398  87.6216  71.9104 0061357 249.1633 110.2986 14.34076389639087
COSMOS 2493 (SKRL-756 1)
1 39490U 13078A   21356.46230897  .00000944  00000+0  97670-4 0  9999
2 39490  82.4187  43.7491 0016324 328.4359  31.5878 14.88962689433682
COSMOS 2494 (SKRL-756 2)
1 39491U 13078B   21356.47205134  .00000999  00000+0  99836-4 0  9993
2 39491  82.4186  37.8986 0020550 303.6474  56.2784 14.90371010433971
